start=new Date('2023-01-25T00:00:00.000Z').valueOf();
sats=[{"REV_AT_EPOCH":"3121","LAUNCH_DATE":"2022-07-07","OBJECT_NAME":"STARLINK-4296","MEAN_MOTION":"15.08843265","ECCENTRICITY":"0.00015540","COUNTRY_CODE":"US","TLE_LINE1":"1 52995U 22076K   23024.70143021  .00000407  00000-0  43693-4 0  9996","BSTAR":"0.00004369300000","REF_FRAME":"TEME","APOAPSIS":"540.810","CLASSIFICATION_TYPE":"U","PERIAPSIS":"538.660","RCS_SIZE":"LARGE","DECAY_DATE":null,"OBJECT_ID":"2022-076K","TIME_SYSTEM":"UTC","TLE_LINE2":"2 52995  53.2169 171.7285 0001554  75.6516 284.4649 15.08843265 31210","MEAN_MOTION_DOT":"0.00000407","FILE":"3760045","EPOCH":"2023-01-24T16:50:03.570144","MEAN_ELEMENT_THEORY":"SGP4","PERIOD":"95.437","SITE":"AFETR","ARG_OF_PERICENTER":"75.6516","MEAN_MOTION_DDOT":"0.0000000000000","CENTER_NAME":"EARTH","OBJECT_TYPE":"PAYLOAD","GP_ID":"223638676","EPHEMERIS_TYPE":"0","ELEMENT_SET_NO":"999","INCLINATION":"53.2169","SEMIMAJOR_AXIS":"6917.870","RA_OF_ASC_NODE":"171.7285","NORAD_CAT_ID":"52995","MEAN_ANOMALY":"284.4649"},{"REV_AT_EPOCH":"3116","LAUNCH_DATE":"2022-07-07","OBJECT_NAME":"STARLINK-4295","ECCENTRICITY":"0.00023700","MEAN_MOTION":"15.08832731","COUNTRY_CODE":"US","TLE_LINE1":"1 52996U 22076L   23024.37391676  .00000813  00000-0  69183-4 0  9994","BSTAR":"0.00006918300000","REF_FRAME":"TEME","APOAPSIS":"541.407","CLASSIFICATION_TYPE":"U","PERIAPSIS":"538.128","DECAY_DATE":null,"RCS_SIZE":"LARGE","OBJECT_ID":"2022-076L","TIME_SYSTEM":"UTC","TLE_LINE2":"2 52996  53.2149 173.2070 0002370  89.1978 270.9286 15.08832731 31164","MEAN_MOTION_DOT":"0.00000813","FILE":"3759743","EPOCH":"2023-01-24T08:58:26.408064","MEAN_ELEMENT_THEORY":"SGP4","PERIOD":"95.438","SITE":"AFETR","ARG_OF_PERICENTER":"89.1978","MEAN_MOTION_DDOT":"0.0000000000000","CENTER_NAME":"EARTH","OBJECT_TYPE":"PAYLOAD","EPHEMERIS_TYPE":"0","GP_ID":"223632948","ELEMENT_SET_NO":"999","INCLINATION":"53.2149","RA_OF_ASC_NODE":"173.2070","SEMIMAJOR_AXIS":"6917.903","NORAD_CAT_ID":"52996","MEAN_ANOMALY":"270.9286"},{"INCLINATION":"53.2153","GP_ID":"223643324","EPHEMERIS_TYPE":"0","ELEMENT_SET_NO":"999","NORAD_CAT_ID":"52997","MEAN_ANOMALY":"253.5668","RA_OF_ASC_NODE":"171.6266","SEMIMAJOR_AXIS":"6912.921","EPOCH":"2023-01-24T16:00:50.423328","FILE":"3760219","MEAN_MOTION_DDOT":"0.0000000000000","CENTER_NAME":"EARTH","OBJECT_TYPE":"PAYLOAD","MEAN_ELEMENT_THEORY":"SGP4","PERIOD":"95.335","SITE":"AFETR","ARG_OF_PERICENTER":"106.5666","PERIAPSIS":"532.639","REF_FRAME":"TEME","APOAPSIS":"536.933","CLASSIFICATION_TYPE":"U","TLE_LINE2":"2 52997  53.2153 171.6266 0003106 106.5666 253.5668 15.10463898 31219","MEAN_MOTION_DOT":"0.00026096","DECAY_DATE":null,"RCS_SIZE":"LARGE","OBJECT_ID":"2022-076M","TIME_SYSTEM":"UTC","COUNTRY_CODE":"US","REV_AT_EPOCH":"3121","LAUNCH_DATE":"2022-07-07","OBJECT_NAME":"STARLINK-4301","MEAN_MOTION":"15.10463898","ECCENTRICITY":"0.00031060","BSTAR":"0.00157980000000","TLE_LINE1":"1 52997U 22076M   23024.66725027  .00026096  00000-0  15798-2 0  9990"},{"PERIAPSIS":"538.620","APOAPSIS":"540.826","CLASSIFICATION_TYPE":"U","REF_FRAME":"TEME","MEAN_MOTION_DOT":"0.00002768","TLE_LINE2":"2 52998  53.2136 171.1500 0001594  87.7696 272.3479 15.08847304 31235","TIME_SYSTEM":"UTC","RCS_SIZE":"LARGE","DECAY_DATE":null,"OBJECT_ID":"2022-076N","COUNTRY_CODE":"US","OBJECT_NAME":"STARLINK-4254","MEAN_MOTION":"15.08847304","ECCENTRICITY":"0.00015940","REV_AT_EPOCH":"3123","LAUNCH_DATE":"2022-07-07","BSTAR":"0.00019187000000","TLE_LINE1":"1 52998U 22076N   23024.83118463  .00002768  00000-0  19187-3 0  9997","INCLINATION":"53.2136","EPHEMERIS_TYPE":"0","GP_ID":"223643319","ELEMENT_SET_NO":"999","NORAD_CAT_ID":"52998","MEAN_ANOMALY":"272.3479","SEMIMAJOR_AXIS":"6917.858","RA_OF_ASC_NODE":"171.1500","EPOCH":"2023-01-24T19:56:54.352032","FILE":"3760219","OBJECT_TYPE":"PAYLOAD","MEAN_MOTION_DDOT":"0.0000000000000","CENTER_NAME":"EARTH","ARG_OF_PERICENTER":"87.7696","MEAN_ELEMENT_THEORY":"SGP4","PERIOD":"95.437","SITE":"AFETR"},{"SITE":"AFETR","MEAN_ELEMENT_THEORY":"SGP4","PERIOD":"95.438","ARG_OF_PERICENTER":"83.6833","CENTER_NAME":"EARTH","MEAN_MOTION_DDOT":"0.0000000000000","OBJECT_TYPE":"PAYLOAD","FILE":"3759897","EPOCH":"2023-01-24T13:12:47.756736","RA_OF_ASC_NODE":"172.4048","SEMIMAJOR_AXIS":"6917.888","NORAD_CAT_ID":"52999","MEAN_ANOMALY":"276.4328","ELEMENT_SET_NO":"999","EPHEMERIS_TYPE":"0","GP_ID":"223636818","INCLINATION":"53.2184","TLE_LINE1":"1 52999U 22076P   23024.55055274  .00000593  00000-0  55327-4 0  9998","BSTAR":"0.00005532700000","LAUNCH_DATE":"2022-07-07","REV_AT_EPOCH":"3119","ECCENTRICITY":"0.00014790","MEAN_MOTION":"15.08837601","OBJECT_NAME":"STARLINK-4217","COUNTRY_CODE":"US","OBJECT_ID":"2022-076P","DECAY_DATE":null,"RCS_SIZE":"LARGE","TIME_SYSTEM":"UTC","TLE_LINE2":"2 52999  53.2184 172.4048 0001479  83.6833 276.4328 15.08837601 31192","MEAN_MOTION_DOT":"0.00000593","REF_FRAME":"TEME","CLASSIFICATION_TYPE":"U","APOAPSIS":"540.776","PERIAPSIS":"538.730"},{"TLE_LINE1":"1 53000U 22076Q   23024.83022712  .00001716  00000-0  12587-3 0  9992","BSTAR":"0.00012587000000","OBJECT_NAME":"STARLINK-4194","ECCENTRICITY":"0.00015860","MEAN_MOTION":"15.08846904","REV_AT_EPOCH":"3123","LAUNCH_DATE":"2022-07-07","COUNTRY_CODE":"US","TIME_SYSTEM":"UTC","RCS_SIZE":"LARGE","DECAY_DATE":null,"OBJECT_ID":"2022-076Q","MEAN_MOTION_DOT":"0.00001716","TLE_LINE2":"2 53000  53.2151 171.1524 0001586  91.4417 268.6757 15.08846904 31239","APOAPSIS":"540.821","CLASSIFICATION_TYPE":"U","REF_FRAME":"TEME","PERIAPSIS":"538.627","ARG_OF_PERICENTER":"91.4417","PERIOD":"95.437","MEAN_ELEMENT_THEORY":"SGP4","SITE":"AFETR","OBJECT_TYPE":"PAYLOAD","MEAN_MOTION_DDOT":"0.0000000000000","CENTER_NAME":"EARTH","FILE":"3760219","EPOCH":"2023-01-24T19:55:31.623168","SEMIMAJOR_AXIS":"6917.859","RA_OF_ASC_NODE":"171.1524","MEAN_ANOMALY":"268.6757","NORAD_CAT_ID":"53000","EPHEMERIS_TYPE":"0","GP_ID":"223643116","ELEMENT_SET_NO":"999","INCLINATION":"53.2151"},{"TIME_SYSTEM":"UTC","RCS_SIZE":"LARGE","DECAY_DATE":null,"OBJECT_ID":"2022-076R","MEAN_MOTION_DOT":"0.00000052","TLE_LINE2":"2 53001  53.2178 174.2038 0001348  79.8974 280.2170 15.08841934 31133","APOAPSIS":"540.672","CLASSIFICATION_TYPE":"U","REF_FRAME":"TEME","PERIAPSIS":"538.807","TLE_LINE1":"1 53001U 22076R   23024.14943023  .00000052  00000-0  21356-4 0  9991","BSTAR":"0.00002135600000","OBJECT_NAME":"STARLINK-4190","ECCENTRICITY":"0.00013480","MEAN_MOTION":"15.08841934","REV_AT_EPOCH":"3113","LAUNCH_DATE":"2022-07-07","COUNTRY_CODE":"US","SEMIMAJOR_AXIS":"6917.874","RA_OF_ASC_NODE":"174.2038","NORAD_CAT_ID":"53001","MEAN_ANOMALY":"280.2170","EPHEMERIS_TYPE":"0","GP_ID":"223631086","ELEMENT_SET_NO":"999","INCLINATION":"53.2178","ARG_OF_PERICENTER":"79.8974","MEAN_ELEMENT_THEORY":"SGP4","PERIOD":"95.437","SITE":"AFETR","OBJECT_TYPE":"PAYLOAD","MEAN_MOTION_DDOT":"0.0000000000000","CENTER_NAME":"EARTH","FILE":"3759659","EPOCH":"2023-01-24T03:35:10.771872"},{"SEMIMAJOR_AXIS":"6917.891","RA_OF_ASC_NODE":"172.3620","NORAD_CAT_ID":"53002","MEAN_ANOMALY":"305.1325","ELEMENT_SET_NO":"999","GP_ID":"223636833","EPHEMERIS_TYPE":"0","INCLINATION":"53.2150","ARG_OF_PERICENTER":"54.9867","SITE":"AFETR","PERIOD":"95.438","MEAN_ELEMENT_THEORY":"SGP4","OBJECT_TYPE":"PAYLOAD","CENTER_NAME":"EARTH","MEAN_MOTION_DDOT":"0.0000000000000","FILE":"3759898","EPOCH":"2023-01-24T13:28:41.785536","TIME_SYSTEM":"UTC","OBJECT_ID":"2022-076S","RCS_SIZE":"LARGE","DECAY_DATE":null,"MEAN_MOTION_DOT":"0.00000827","TLE_LINE2":"2 53002  53.2150 172.3620 0002131  54.9867 305.1325 15.08836492 31194","CLASSIFICATION_TYPE":"U","APOAPSIS":"541.230","REF_FRAME":"TEME","PERIAPSIS":"538.282","TLE_LINE1":"1 53002U 22076S   23024.56159474  .00000827  00000-0  70085-4 0  9990","BSTAR":"0.00007008500000","ECCENTRICITY":"0.00021310","MEAN_MOTION":"15.08836492","OBJECT_NAME":"STARLINK-4121","LAUNCH_DATE":"2022-07-07","REV_AT_EPOCH":"3119","COUNTRY_CODE":"US"},{"BSTAR":"0.00011866000000","TLE_LINE1":"1 53003U 22076T   23024.73822273  .00001602  00000-0  11866-3 0  9997","COUNTRY_CODE":"US","OBJECT_NAME":"STARLINK-4255","ECCENTRICITY":"0.00012240","MEAN_MOTION":"15.08851938","REV_AT_EPOCH":"3122","LAUNCH_DATE":"2022-07-07","MEAN_MOTION_DOT":"0.00001602","TLE_LINE2":"2 53003  53.2191 171.5646 0001224  81.4298 278.6833 15.08851938 31228","TIME_SYSTEM":"UTC","DECAY_DATE":null,"RCS_SIZE":"MEDIUM","OBJECT_ID":"2022-076T","PERIAPSIS":"538.862","APOAPSIS":"540.556","CLASSIFICATION_TYPE":"U","REF_FRAME":"TEME","OBJECT_TYPE":"PAYLOAD","MEAN_MOTION_DDOT":"0.0000000000000","CENTER_NAME":"EARTH","ARG_OF_PERICENTER":"81.4298","MEAN_ELEMENT_THEORY":"SGP4","PERIOD":"95.437","SITE":"AFETR","EPOCH":"2023-01-24T17:43:02.443872","FILE":"3760045","NORAD_CAT_ID":"53003","MEAN_ANOMALY":"278.6833","RA_OF_ASC_NODE":"171.5646","SEMIMAJOR_AXIS":"6917.844","INCLINATION":"53.2191","EPHEMERIS_TYPE":"0","GP_ID":"223639181","ELEMENT_SET_NO":"999"},{"EPOCH":"2023-01-23T16:38:04.665984","FILE":"3759179","OBJECT_TYPE":"PAYLOAD","CENTER_NAME":"EARTH","MEAN_MOTION_DDOT":"0.0000000000000","ARG_OF_PERICENTER":"87.8570","SITE":"AFETR","PERIOD":"95.438","MEAN_ELEMENT_THEORY":"SGP4","INCLINATION":"53.2186","ELEMENT_SET_NO":"999","EPHEMERIS_TYPE":"0","GP_ID":"223621432","NORAD_CAT_ID":"53004","MEAN_ANOMALY":"272.2567","RA_OF_ASC_NODE":"176.2463","SEMIMAJOR_AXIS":"6917.883","COUNTRY_CODE":"US","MEAN_MOTION":"15.08838993","ECCENTRICITY":"0.00012650","OBJECT_NAME":"STARLINK-4253","LAUNCH_DATE":"2022-07-07","REV_AT_EPOCH":"3106","BSTAR":"0.00008168200000","TLE_LINE1":"1 53004U 22076U   23023.69310956  .00001012  00000-0  81682-4 0  9991","PERIAPSIS":"538.873","CLASSIFICATION_TYPE":"U","APOAPSIS":"540.624","REF_FRAME":"TEME","MEAN_MOTION_DOT":"0.00001012","TLE_LINE2":"2 53004  53.2186 176.2463 0001265  87.8570 272.2567 15.08838993 31062","TIME_SYSTEM":"UTC","OBJECT_ID":"2022-076U","RCS_SIZE":"LARGE","DECAY_DATE":null}];
